{
  "links" : {
    "next" : "https://api.nasa.gov/neo/rest/v1/feed?start_date=2008-03-09&end_date=2008-03-09&detailed=true&api_key=t0TVs3DtDT2H8Oy2Zy8m2eVrNsAVKAexjcZXUckd",
    "prev" : "https://api.nasa.gov/neo/rest/v1/feed?start_date=2008-03-07&end_date=2008-03-07&detailed=true&api_key=t0TVs3DtDT2H8Oy2Zy8m2eVrNsAVKAexjcZXUckd",
    "self" : "https://api.nasa.gov/neo/rest/v1/feed?start_date=2008-03-08&end_date=2008-03-08&detailed=true&api_key=t0TVs3DtDT2H8Oy2Zy8m2eVrNsAVKAexjcZXUckd"
  },
  "element_count" : 5,
  "near_earth_objects" : {
    "2008-03-08" : [ {
      "links" : {
        "self" : "https://api.nasa.gov/neo/rest/v1/neo/3404126?api_key=t0TVs3DtDT2H8Oy2Zy8m2eVrNsAVKAexjcZXUckd"
      },
      "neo_reference_id" : "3404126",
      "name" : "(2008 DX)",
      "nasa_jpl_url" : "http://ssd.jpl.nasa.gov/sbdb.cgi?sstr=3404126",
      "absolute_magnitude_h" : 23.7,
      "estimated_diameter" : {
        "kilometers" : {
          "estimated_diameter_min" : 0.0483676488,
          "estimated_diameter_max" : 0.1081533507
        },
        "meters" : {
          "estimated_diameter_min" : 48.3676488219,
          "estimated_diameter_max" : 108.1533506775
        },
        "miles" : {
          "estimated_diameter_min" : 0.0300542543,
          "estimated_diameter_max" : 0.0672033557
        },
        "feet" : {
          "estimated_diameter_min" : 158.6865169607,
          "estimated_diameter_max" : 354.8338390368
        }
      },
      "is_potentially_hazardous_asteroid" : false,
      "close_approach_data" : [ {
        "close_approach_date" : "2008-03-08",
        "epoch_date_close_approach" : 1204963200000,
        "relative_velocity" : {
          "kilometers_per_second" : "6.7792422471",
          "kilometers_per_hour" : "24405.2720896249",
          "miles_per_hour" : "15164.4869825783"
        },
        "miss_distance" : {
          "astronomical" : "0.1681810374",
          "lunar" : "65.4224243164",
          "kilometers" : "25159524",
          "miles" : "15633404"
        },
        "orbiting_body" : "Earth"
      } ],
      "orbital_data" : {
        "orbit_id" : "11",
        "orbit_determination_date" : "2017-04-06 09:04:16",
        "orbit_uncertainty" : "6",
        "minimum_orbit_intersection" : ".157422",
        "jupiter_tisserand_invariant" : "3.392",
        "epoch_osculation" : "2458000.5",
        "eccentricity" : ".5037176339090434",
        "semi_major_axis" : "2.301805300040015",
        "inclination" : "10.06690154016697",
        "ascending_node_longitude" : "155.4201700205249",
        "orbital_period" : "1275.561214790391",
        "perihelion_distance" : "1.142345380584563",
        "perihelion_argument" : "16.68264098137538",
        "aphelion_distance" : "3.461265219495468",
        "perihelion_time" : "2458369.423669847700",
        "mean_anomaly" : "255.8791474645168",
        "mean_motion" : ".2822287129976414",
        "equinox" : "J2000"
      }
    }, {
      "links" : {
        "self" : "https://api.nasa.gov/neo/rest/v1/neo/3405335?api_key=t0TVs3DtDT2H8Oy2Zy8m2eVrNsAVKAexjcZXUckd"
      },
      "neo_reference_id" : "3405335",
      "name" : "(2008 EG32)",
      "nasa_jpl_url" : "http://ssd.jpl.nasa.gov/sbdb.cgi?sstr=3405335",
      "absolute_magnitude_h" : 27.1,
      "estimated_diameter" : {
        "kilometers" : {
          "estimated_diameter_min" : 0.0101054342,
          "estimated_diameter_max" : 0.0225964377
        },
        "meters" : {
          "estimated_diameter_min" : 10.1054341542,
          "estimated_diameter_max" : 22.5964377109
        },
        "miles" : {
          "estimated_diameter_min" : 0.0062792237,
          "estimated_diameter_max" : 0.0140407711
        },
        "feet" : {
          "estimated_diameter_min" : 33.1543125905,
          "estimated_diameter_max" : 74.1352966996
        }
      },
      "is_potentially_hazardous_asteroid" : false,
      "close_approach_data" : [ {
        "close_approach_date" : "2008-03-08",
        "epoch_date_close_approach" : 1204963200000,
        "relative_velocity" : {
          "kilometers_per_second" : "9.0333421071",
          "kilometers_per_hour" : "32520.0315857173",
          "miles_per_hour" : "20206.6829594697"
        },
        "miss_distance" : {
          "astronomical" : "0.0077688039",
          "lunar" : "3.0220646858",
          "kilometers" : "1162196.5",
          "miles" : "722155.4375"
        },
        "orbiting_body" : "Earth"
      } ],
      "orbital_data" : {
        "orbit_id" : "9",
        "orbit_determination_date" : "2017-04-06 09:04:03",
        "orbit_uncertainty" : "7",
        "minimum_orbit_intersection" : ".00466632",
        "jupiter_tisserand_invariant" : "4.247",
        "epoch_osculation" : "2458000.5",
        "eccentricity" : ".4299045336530391",
        "semi_major_axis" : "1.601657338186332",
        "inclination" : "4.828875631229175",
        "ascending_node_longitude" : "350.023423631869",
        "orbital_period" : "740.3768633036085",
        "perihelion_distance" : ".9130975871413691",
        "perihelion_argument" : "134.1921813867765",
        "aphelion_distance" : "2.290217089231295",
        "perihelion_time" : "2458200.760437310824",
        "mean_anomaly" : "262.6255937952872",
        "mean_motion" : ".4862388573214689",
        "equinox" : "J2000"
      }
    } ]
  }
}